OBJECT_NAME,OBJECT_ID,EPOCH,MEAN_MOTION,ECCENTRICITY,INCLINATION,RA_OF_ASC_NODE,ARG_OF_PERICENTER,MEAN_ANOMALY,EPHEMERIS_TYPE,CLASSIFICATION_TYPE,NORAD_CAT_ID,ELEMENT_SET_NO,REV_AT_EPOCH,BSTAR,MEAN_MOTION_DOT,MEAN_MOTION_DDOT
HAWK-5A,2022-057AB,2026-07-07T17:50:46.867200,15.52139344,.0004053,97.6626,348.9329,7.1190,353.0118,0,U,52757,999,22953,.2119E-3,.12714E-3,0
HAWK-6B,2023-011A,2026-07-07T13:49:33.812256,15.23109984,.0003032,40.4971,233.1356,198.5523,161.5176,0,U,55324,999,19095,.11961E-3,.2686E-4,0
HAWK-6C,2023-011C,2026-07-07T13:48:40.149216,15.23110272,.0003406,40.4958,229.9751,185.2736,174.8038,0,U,55326,999,19096,.12876E-3,.2907E-4,0
HAWK-6A,2023-011D,2026-07-07T13:48:43.014240,15.23111426,.0002947,40.4968,231.6017,183.6819,176.3969,0,U,55327,999,19096,.12816E-3,.2892E-4,0
HAWK-7A,2023-054P,2026-07-07T17:54:22.422240,15.27580157,.0002261,97.2674,75.5606,5.1743,354.9520,0,U,56191,999,18016,.14051E-3,.3717E-4,0
HAWK-7B,2023-054R,2026-07-07T17:54:15.947424,15.27582960,.0002127,97.2701,73.8317,30.1406,329.9955,0,U,56193,999,18016,.14312E-3,.3788E-4,0
HAWK-7C,2023-054Y,2026-07-07T17:54:06.320736,15.27581486,.0001795,97.2677,74.5939,17.0088,343.1211,0,U,56200,999,18016,.14051E-3,.3717E-4,0
